satname,norad_id,inclination_deg,eccentricity,mean_motion_rev_per_day,perigee_km,apogee_km,l1,l2
STARLINK-1190,45083,53.0308,0.0003072,16.17227688,225.06059678765905,229.11884808592276,1 45083U 20006AR  25326.57124167  .01406738  16041-2  90295-3 0  9990,2 45083  53.0308 323.1961 0003072 326.6618  33.4225 16.17227688321496
STARLINK-1185,45087,53.0563,0.0001341,15.06419716,546.2224507584688,548.0798130354424,1 45087U 20006AV  25326.32799537  .00005654  00000+0  39797-3 0  9992,2 45087  53.0563   8.5836 0001341  96.9390 263.1752 15.06419716320846
STARLINK-1183,45088,53.0567,0.0001518,15.06419251,546.1012980695068,548.203815979019,1 45088U 20006AW  25326.35011357  .00004910  00000+0  34812-3 0  9990,2 45088  53.0567   8.4863 0001518  91.1922 268.9241 15.06419251320844
STARLINK-1142,45093,53.031,0.000849,15.71869118,347.84004792354335,359.2704613719361,1 45093U 20006BB  25326.91668980  .00267161  00000+0  19522-2 0  9997,2 45093  53.0310 289.5973 0008490  89.4167 243.6599 15.71869118  6016
STARLINK-1152,45096,53.0441,0.0003887,15.26047252,484.97380748021624,490.3112644914918,1 45096U 20006BE  25326.47959744  .00050864  00000+0  19490-2 0  9996,2 45096  53.0441 347.2154 0003887 277.4779  82.5777 15.26047252321150
STARLINK-1184,45098,53.0552,0.0001284,15.06416901,546.2705511878685,548.0489673956536,1 45098U 20006BG  25326.49755057  .00007201  00000+0  50159-3 0  9996,2 45098  53.0552   7.8226 0001284  89.6663 270.4473 15.06416901320865
STARLINK-1193,45100,53.0556,0.0001665,15.06416217,546.0087933553823,548.3149178743006,1 45100U 20006BJ  25326.49386711  .00004122  00000+0  29535-3 0  9990,2 45100  53.0556   7.8388 0001665  91.4938 268.6242 15.06416217320864
STARLINK-1143,45179,53.0526,0.0007558,15.43622522,430.2788353318747,440.5782209842382,1 45179U 20012B   25326.68210101  .00045929  00000+0  10070-2 0  9996,2 45179  53.0526 125.0904 0007558 130.4699 229.6966 15.43622522319305
STARLINK-1202,45183,53.0527,0.0001569,15.0641023,546.0936223696935,548.266786908508,1 45183U 20012F   25326.75556797  .00002255  00000+0  17022-3 0  9993,2 45183  53.0527 166.6674 0001569  82.3222 277.7945 15.06410230318725
STARLINK-1216,45185,53.0548,0.000147,15.06394373,546.2107751633457,548.2468327097031,1 45185U 20012H   25326.74821031  .00000674  00000+0  64167-4 0  9996,2 45185  53.0548 166.6979 0001470  86.1280 273.9877 15.06394373318669
STARLINK-1225,45187,53.0525,0.0001378,15.0640214,546.2506870267762,548.1593112817427,1 45187U 20012K   25326.76664931  .00001783  00000+0  13856-3 0  9994,2 45187  53.0525 166.6149 0001378  81.8273 278.2872 15.06402140318717
STARLINK-1230,45189,53.0514,0.0001481,15.06394948,546.2013952193629,548.2526880484957,1 45189U 20012M   25326.77032090 -.00001210  00000+0 -62347-4 0  9999,2 45189  53.0514 166.6029 0001481  87.8051 272.3107 15.06394948315943
STARLINK-1234,45190,53.051,0.0002372,15.39484211,446.0144243935629,449.2525699174139,1 45190U 20012N   25326.91668980  .00118034  00000+0  29280-2 0  9998,2 45190  53.0510 118.0127 0002372 213.1387 221.7066 15.39484211  5933
STARLINK-1269,45197,53.0541,0.0001968,15.06417428,545.7952460589695,548.521042227705,1 45197U 20012V   25326.78136598  .00002776  00000+0  20507-3 0  9994,2 45197  53.0541 166.5531 0001968  63.9081 296.2110 15.06417428318690
STARLINK-1154,45198,53.0525,0.0001188,15.06394005,546.4071982192754,548.0526654022742,1 45198U 20012W   25326.77217074  .00000676  00000+0  64255-4 0  9999,2 45198  53.0525 146.5905 0001188  45.1334 314.9751 15.06394005318945
STARLINK-1199,45201,53.0542,0.0001556,15.06399237,546.1363118248883,548.2914810238562,1 45201U 20012Z   25326.78323486  .00001588  00000+0  12552-3 0  9995,2 45201  53.0542 146.5413 0001556 107.2941 252.8218 15.06399237319004
STARLINK-1209,45206,53.0519,0.0001649,15.33075764,465.51327746686275,467.7706855749675,1 45206U 20012AE  25326.72551043  .00077877  00000+0  23899-2 0  9995,2 45206  53.0519 120.4862 0001649 224.9910 135.0957 15.33075764318410
STARLINK-1210,45207,53.0218,0.0006466,15.62423093,376.2898523265376,385.0303287240058,1 45207U 20012AF  25326.91668980  .00087149  00000+0  95888-3 0  9997,2 45207  53.0218  77.2569 0006466 127.1394 128.3557 15.62423093  5881
STARLINK-1231,45212,53.0487,0.0007927,15.13614176,519.7167463009364,530.6612793616796,1 45212U 20012AL  25325.77664589  .00025836  00000+0  14325-2 0  9998,2 45212  53.0487 148.4126 0007927 111.9573 248.2262 15.13614176318846
STARLINK-1271,45217,53.0523,0.0001313,15.06415492,546.2547855649573,548.073369627934,1 45217U 20012AR  25326.76846589  .00004051  00000+0  29058-3 0  9991,2 45217  53.0523 146.6067 0001313  99.7352 260.3786 15.06415492319004
STARLINK-1191,45222,53.0545,0.0001898,15.06393133,545.9181692332868,548.5470395351122,1 45222U 20012AW  25326.64500373 -.00000361  00000+0 -53356-5 0  9994,2 45222  53.0545 127.1590 0001898 102.9509 257.1692 15.06393133319263
STARLINK-1212,45223,53.054,0.0001481,15.0639608,546.1979262990053,548.2492181004909,1 45223U 20012AX  25326.72985507 -.00000899  00000+0 -41436-4 0  9991,2 45223  53.0540 127.4338 0001481 100.4371 259.6785 15.06396080319275
STARLINK-1215,45225,53.0532,0.0001581,15.06390987,546.1442796485835,548.3340835972122,1 45225U 20012AZ  25326.68554725  .00002978  00000+0  21876-3 0  9995,2 45225  53.0532 126.9769 0001581  96.3576 263.7593 15.06390987319229
STARLINK-1221,45227,53.0684,0.0004403,15.37664336,450.0103564591118,456.02587165254954,1 45227U 20012BB  25326.49065850  .00015317  00000+0  41770-3 0  9998,2 45227  53.0684  55.9467 0004403  41.5113 318.6223 15.37664336320194
STARLINK-1222,45228,53.0531,0.000137,15.06387626,546.3007047775645,548.1982606738329,1 45228U 20012BC  25326.71872187 -.00000332  00000+0 -33914-5 0  9999,2 45228  53.0531 126.8283 0001370  90.9048 269.2098 15.06387626319161
STARLINK-1226,45229,53.0541,0.0001356,15.06388864,546.3066064921113,548.1847702772002,1 45229U 20012BD  25326.68186512 -.00001061  00000+0 -52362-4 0  9993,2 45229  53.0541 126.9921 0001356 102.5298 257.5843 15.06388864319167
STARLINK-1227,45230,53.0548,0.0002656,15.06395914,545.3847050649874,549.0634568711985,1 45230U 20012BE  25326.67818328 -.00000216  00000+0  44477-5 0  9990,2 45230  53.0548 127.0095 0002656 114.1487 245.9780 15.06395914319281
STARLINK-1246,45235,53.0539,0.0001669,15.06394813,546.0716120642237,548.3832987194337,1 45235U 20012BK  25326.75926924 -.00000015  00000+0  17889-4 0  9999,2 45235  53.0539 166.6435 0001669  74.8351 285.2822 15.06394813318749
STARLINK-1270,45237,53.0542,0.000136,15.06400348,546.2686441097785,548.1523386274303,1 45237U 20012BM  25326.76293767  .00002688  00000+0  19927-3 0  9995,2 45237  53.0542 126.6286 0001360  95.3247 264.7897 15.06400348319280
STARLINK-1279,45360,53.0521,0.0008102,15.37803833,447.07072958948083,458.1392639210235,1 45360U 20019A   25326.77055174  .00050974  00000+0  13523-2 0  9994,2 45360  53.0521 249.3845 0008102  84.7502 275.4425 15.37803833314129
STARLINK-1301,45361,53.0516,0.0007439,15.40536652,439.44901278490033,449.5997684018257,1 45361U 20019B   25326.76209797  .00067492  00000+0  16310-2 0  9996,2 45361  53.0516 258.7501 0007439  78.9087 281.2753 15.40536652314004
STARLINK-1306,45362,53.0433,0.0006126,15.78503586,330.56749406605286,338.79203716728534,1 45362U 20019C   25326.91668980  .00129515  00000+0  72301-3 0  9995,2 45362  53.0433 242.4711 0006126  58.8589 142.4656 15.78503586  5965
STARLINK-1262,45366,53.0554,0.0001281,15.06408915,546.2971012318358,548.0713685322116,1 45366U 20019G   25326.34274582  .00001653  00000+0  12978-3 0  9993,2 45366  53.0554 288.5142 0001281  92.1583 267.9553 15.06408915313551
STARLINK-1273,45367,53.055,0.0001737,15.06415716,545.9604664026283,548.3663157584897,1 45367U 20019H   25326.16582601  .00006643  00000+0  46426-3 0  9997,2 45367  53.0550 289.3076 0001737  86.7126 273.4062 15.06415716313522
STARLINK-1276,45368,53.0542,0.0001545,15.06421848,546.0746417674045,548.2145537811175,1 45368U 20019J   25326.13632692  .00006649  00000+0  46457-3 0  9991,2 45368  53.0542 289.4448 0001545  80.3315 279.7849 15.06421848313520
STARLINK-1277,45369,53.054,0.0001361,15.06419292,546.2098994762391,548.0949632594575,1 45369U 20019K   25326.32808140  .00006829  00000+0  47662-3 0  9995,2 45369  53.0540 289.2099 0001361  85.9670 274.1474 15.06419292313545
STARLINK-1281,45370,53.0549,0.0001548,15.06423236,546.0683109274332,548.2123767930925,1 45370U 20019L   25326.12527456  .00007502  00000+0  52167-3 0  9998,2 45370  53.0549 289.4951 0001548  87.9273 272.1893 15.06423236313527
STARLINK-1300,45374,53.0553,0.0002338,15.06414012,545.5494770568148,548.7877499616916,1 45374U 20019Q   25326.28009140  .00005832  00000+0  40998-3 0  9997,2 45374  53.0553 288.7967 0002338  94.1462 265.9794 15.06414012313547
STARLINK-1302,45375,53.0549,0.0001748,15.063925,546.0239895074792,548.4450993994205,1 45375U 20019R   25326.29482598 -.00004371  00000+0 -27477-3 0  9997,2 45375  53.0549 288.7318 0001748  70.9577 289.1601 15.06392500313548
STARLINK-1304,45376,53.055,0.0001344,15.06414305,546.2369545667543,548.0984764742861,1 45376U 20019S   25326.18055370  .00003152  00000+0  23028-3 0  9992,2 45376  53.0550 289.2428 0001344 102.6125 257.5014 15.06414305313526
STARLINK-1305,45377,53.0535,0.0005696,15.34466232,458.60996135010373,466.4028223020714,1 45377U 20019T   25326.27147089  .00105985  00000+0  30961-2 0  9992,2 45377  53.0535 282.5031 0005696  76.1328 284.0307 15.34466232313639
STARLINK-1319,45379,53.0544,0.0005218,15.39169746,445.0010006054554,452.1253449057431,1 45379U 20019V   25326.91668980  .00093724  00000+0  23580-2 0  9999,2 45379  53.0544 281.1645 0005218  85.3751 136.7901 15.39169746  5691
STARLINK-1266,45383,53.0546,0.0001658,15.06370408,546.1540168125493,548.4504924693874,1 45383U 20019Z   25326.26720343 -.00006786  00000+0 -43745-3 0  9994,2 45383  53.0546 268.8588 0001658  78.2704 281.8471 15.06370408313812
